[{"OBJECT_NAME":"ONEWEB-0715","OBJECT_ID":"2023-004AN","EPOCH":"2026-03-09T22:14:52.141632","MEAN_MOTION":13.11414582,"ECCENTRICITY":0.00025495,"INCLINATION":87.8864,"RA_OF_ASC_NODE":40.7995,"ARG_OF_PERICENTER":79.3964,"MEAN_ANOMALY":280.7451,"EPHEMERIS_TYPE":0,"CLASSIFICATION_TYPE":"U","NORAD_CAT_ID":55176,"ELEMENT_SET_NO":999,"REV_AT_EPOCH":15285,"BSTAR":-0.00013627963,"MEAN_MOTION_DOT":-3.6e-7,"MEAN_MOTION_DDOT":0},{"OBJECT_NAME":"COSMOS 2392","OBJECT_ID":"2002-037A","EPOCH":"2026-03-09T21:30:29.107872","MEAN_MOTION":12.06808677,"ECCENTRICITY":0.0616138,"INCLINATION":63.3976,"RA_OF_ASC_NODE":248.9775,"ARG_OF_PERICENTER":358.8433,"MEAN_ANOMALY":99.9229,"EPHEMERIS_TYPE":0,"CLASSIFICATION_TYPE":"U","NORAD_CAT_ID":27470,"ELEMENT_SET_NO":999,"REV_AT_EPOCH":4131,"BSTAR":0.0014132259,"MEAN_MOTION_DOT":1.58e-6,"MEAN_MOTION_DDOT":0}]
